{"type": "FeatureCollection", "features": [ {"type": "Feature", "properties": {"norad_id": 30742, "name": "FENGYUN 1C DEB", "group": "fengyun-1c-debris", "lat": -73.53635759165286, "lon": 77.58927768769003, "alt_km": 872.2462947215236, "timestamp": "2025-12-27T11:23:20.176049+00:00", "meta": {"OBJECT_NAME": "FENGYUN 1C DEB", "OBJECT_ID": "1999-025ATC", "EPOCH": "2025-12-26T15:55:02.011008", "MEAN_MOTION": 14.10438621, "ECCENTRICITY": 0.00717407, "INCLINATION": 98.8669, "RA_OF_ASC_NODE": 44.9037, "ARG_OF_PERICENTER": 187.9651, "MEAN_ANOMALY": 297.9112, "EPHEMERIS_TYPE": 0, "CLASSIFICATION_TYPE": "U", "NORAD_CAT_ID": 30742, "ELEMENT_SET_NO": 999, "REV_AT_EPOCH": 96238, "BSTAR": 0.0015125107, "MEAN_MOTION_DOT": 2.712e-05, "MEAN_MOTION_DDOT": 0}, "tle": {"line1": "1 30742U 99025ATC 25360.66321772  .00002712  00000+0  15125-2 0  9998", "line2": "2 30742  98.8669  44.9037 0071740 187.9651 297.9112 14.10438621962386"}}, "geometry": {"type": "Point", "coordinates": [77.58927768769003, -73.53635759165286]}}, {"type": "Feature", "properties": {"norad_id": 30744, "name": "FENGYUN 1C DEB", "group": "fengyun-1c-debris", "lat": -45.145868123220346, "lon": 157.9981420725544, "alt_km": 600.0119809697562, "timestamp": "2025-12-27T11:23:20.176059+00:00", "meta": {"OBJECT_NAME": "FENGYUN 1C DEB", "OBJECT_ID": "1999-025ATE", "EPOCH": "2025-12-26T21:40:31.447200", "MEAN_MOTION": 14.90768713, "ECCENTRICITY": 0.001015, "INCLINATION": 98.7273, "RA_OF_ASC_NODE": 148.4852, "ARG_OF_PERICENTER": 242.7991, "MEAN_ANOMALY": 246.571, "EPHEMERIS_TYPE": 0, "CLASSIFICATION_TYPE": "U", "NORAD_CAT_ID": 30744, "ELEMENT_SET_NO": 999, "REV_AT_EPOCH": 98299, "BSTAR": 0.0060948, "MEAN_MOTION_DOT": 0.00060401, "MEAN_MOTION_DDOT": 0}, "tle": {"line1": "1 30744U 99025ATE 25360.90314175  .00060401  00000+0  60948-2 0  9998", "line2": "2 30744  98.7273 148.4852 0010150 242.7991 246.5710 14.90768713982997"}}, "geometry": {"type": "Point", "coordinates": [157.9981420725544, -45.145868123220346]}}, {"type": "Feature", "properties": {"norad_id": 30746, "name": "FENGYUN 1C DEB", "group": "fengyun-1c-debris", "lat": 80.22721328687041, "lon": 114.76446706263468, "alt_km": 825.1184889941269, "timestamp": "2025-12-27T11:23:20.176069+00:00", "meta": {"OBJECT_NAME": "FENGYUN 1C DEB", "OBJECT_ID": "1999-025ATG", "EPOCH": "2025-12-26T18:43:57.621792", "MEAN_MOTION": 14.27546471, "ECCENTRICITY": 0.00459977, "INCLINATION": 99.0574, "RA_OF_ASC_NODE": 181.8818, "ARG_OF_PERICENTER": 277.3152, "MEAN_ANOMALY": 204.2995, "EPHEMERIS_TYPE": 0, "CLASSIFICATION_TYPE": "U", "NORAD_CAT_ID": 30746, "ELEMENT_SET_NO": 999, "REV_AT_EPOCH": 97646, "BSTAR": 0.00048362527, "MEAN_MOTION_DOT": 1.155e-05, "MEAN_MOTION_DDOT": 0}, "tle": {"line1": "1 30746U 99025ATG 25360.78052803  .00001155  00000+0  48363-3 0  9992", "line2": "2 30746  99.0574 181.8818 0045997 277.3152 204.2995 14.27546471976466"}}, "geometry": {"type": "Point", "coordinates": [114.76446706263468, 80.22721328687041]}}, {"type": "Feature", "properties": {"norad_id": 30749, "name": "FENGYUN 1C DEB", "group": "fengyun-1c-debris", "lat": 54.75599705796437, "lon": 15.062896993996697, "alt_km": 918.4433497920354, "timestamp": "2025-12-27T11:23:20.176079+00:00", "meta": {"OBJECT_NAME": "FENGYUN 1C DEB", "OBJECT_ID": "1999-025ATK", "EPOCH": "2025-12-26T07:40:25.506624", "MEAN_MOTION": 13.99838309, "ECCENTRICITY": 0.0056492, "INCLINATION": 98.8855, "RA_OF_ASC_NODE": 26.7329, "ARG_OF_PERICENTER": 194.7869, "MEAN_ANOMALY": 165.1646, "EPHEMERIS_TYPE": 0, "CLASSIFICATION_TYPE": "U", "NORAD_CAT_ID": 30749, "ELEMENT_SET_NO": 999, "REV_AT_EPOCH": 96156, "BSTAR": -5.6431e-05, "MEAN_MOTION_DOT": -1.27e-06, "MEAN_MOTION_DDOT": 0}, "tle": {"line1": "1 30749U 99025ATK 25360.31973966 -.00000127  00000+0 -56431-4 0  9992", "line2": "2 30749  98.8855  26.7329 0056492 194.7869 165.1646 13.99838309961566"}}, "geometry": {"type": "Point", "coordinates": [15.062896993996697, 54.75599705796437]}}, {"type": "Feature", "properties": {"norad_id": 30750, "name": "FENGYUN 1C DEB", "group": "fengyun-1c-debris", "lat": 50.29028989981662, "lon": 65.44929800297251, "alt_km": 763.2765257229512, "timestamp": "2025-12-27T11:23:20.176089+00:00", "meta": {"OBJECT_NAME": "FENGYUN 1C DEB", "OBJECT_ID": "1999-025ATL", "EPOCH": "2025-12-25T03:57:53.858016", "MEAN_MOTION": 14.28705957, "ECCENTRICITY": 0.00393351, "INCLINATION": 98.919, "RA_OF_ASC_NODE": 73.9886, "ARG_OF_PERICENTER": 63.9787, "MEAN_ANOMALY": 356.2147, "EPHEMERIS_TYPE": 0, "CLASSIFICATION_TYPE": "U", "NORAD_CAT_ID": 30750, "ELEMENT_SET_NO": 999, "REV_AT_EPOCH": 96959, "BSTAR": 0.0017775736, "MEAN_MOTION_DOT": 4.465e-05, "MEAN_MOTION_DDOT": 0}, "tle": {"line1": "1 30750U 99025ATL 25359.16520669  .00004465  00000+0  17776-2 0  9997", "line2": "2 30750  98.9190  73.9886 0039335  63.9787 356.2147 14.28705957969591"}}, "geometry": {"type": "Point", "coordinates": [65.44929800297251, 50.29028989981662]}}, {"type": "Feature", "properties": {"norad_id": 30751, "name": "FENGYUN 1C DEB", "group": "fengyun-1c-debris", "lat": 26.332181358696975, "lon": -115.005741224578, "alt_km": 845.7550154770324, "timestamp": "2025-12-27T11:23:20.176099+00:00", "meta": {"OBJECT_NAME": "FENGYUN 1C DEB", "OBJECT_ID": "1999-025ATM", "EPOCH": "2025-12-27T02:28:36.077376", "MEAN_MOTION": 14.15279498, "ECCENTRICITY": 0.0051049, "INCLINATION": 98.8543, "RA_OF_ASC_NODE": 60.201, "ARG_OF_PERICENTER": 55.5442, "MEAN_ANOMALY": 6.1588, "EPHEMERIS_TYPE": 0, "CLASSIFICATION_TYPE": "U", "NORAD_CAT_ID": 30751, "ELEMENT_SET_NO": 999, "REV_AT_EPOCH": 96479, "BSTAR": 0.0016173, "MEAN_MOTION_DOT": 3.144e-05, "MEAN_MOTION_DDOT": 0}, "tle": {"line1": "1 30751U 99025ATM 25361.10319534  .00003144  00000+0  16173-2 0  9995", "line2": "2 30751  98.8543  60.2010 0051049  55.5442   6.1588 14.15279498964791"}}, "geometry": {"type": "Point", "coordinates": [-115.005741224578, 26.332181358696975]}}, {"type": "Feature", "properties": {"norad_id": 30753, "name": "FENGYUN 1C DEB", "group": "fengyun-1c-debris", "lat": 2.558501217501995, "lon": -139.78476455112676, "alt_km": 880.9782229533939, "timestamp": "2025-12-27T11:23:20.176109+00:00", "meta": {"OBJECT_NAME": "FENGYUN 1C DEB", "OBJECT_ID": "1999-025ATP", "EPOCH": "2025-12-26T14:09:01.000224", "MEAN_MOTION": 14.12699748, "ECCENTRICITY": 0.0055273, "INCLINATION": 98.8064, "RA_OF_ASC_NODE": 38.9484, "ARG_OF_PERICENTER": 315.0773, "MEAN_ANOMALY": 44.5933, "EPHEMERIS_TYPE": 0, "CLASSIFICATION_TYPE": "U", "NORAD_CAT_ID": 30753, "ELEMENT_SET_NO": 999, "REV_AT_EPOCH": 96547, "BSTAR": 0.00097141, "MEAN_MOTION_DOT": 1.784e-05, "MEAN_MOTION_DDOT": 0}, "tle": {"line1": "1 30753U 99025ATP 25360.58959491  .00001784  00000+0  97141-3 0  9993", "line2": "2 30753  98.8064  38.9484 0055273 315.0773  44.5933 14.12699748965479"}}, "geometry": {"type": "Point", "coordinates": [-139.78476455112676, 2.558501217501995]}}, {"type": "Feature", "properties": {"norad_id": 30755, "name": "FENGYUN 1C DEB", "group": "fengyun-1c-debris", "lat": -29.33169847412384, "lon": 170.95577730049052, "alt_km": 643.6512290602705, "timestamp": "2025-12-27T11:23:20.176119+00:00", "meta": {"OBJECT_NAME": "FENGYUN 1C DEB", "OBJECT_ID": "1999-025ATR", "EPOCH": "2025-12-26T18:36:31.172256", "MEAN_MOTION": 14.45011431, "ECCENTRICITY": 0.0150974, "INCLINATION": 98.2598, "RA_OF_ASC_NODE": 354.9575, "ARG_OF_PERICENTER": 226.1251, "MEAN_ANOMALY": 308.83, "EPHEMERIS_TYPE": 0, "CLASSIFICATION_TYPE": "U", "NORAD_CAT_ID": 30755, "ELEMENT_SET_NO": 999, "REV_AT_EPOCH": 98647, "BSTAR": 0.0005029764, "MEAN_MOTION_DOT": 1.97e-05, "MEAN_MOTION_DDOT": 0}, "tle": {"line1": "1 30755U 99025ATR 25360.77536079  .00001970  00000+0  50298-3 0  9998", "line2": "2 30755  98.2598 354.9575 0150974 226.1251 308.8300 14.45011431986476"}}, "geometry": {"type": "Point", "coordinates": [170.95577730049052, -29.33169847412384]}}, {"type": "Feature", "properties": {"norad_id": 30756, "name": "FENGYUN 1C DEB", "group": "fengyun-1c-debris", "lat": -29.406474901024485, "lon": -116.04536551396372, "alt_km": 813.5474772549915, "timestamp": "2025-12-27T11:23:20.176129+00:00", "meta": {"OBJECT_NAME": "FENGYUN 1C DEB", "OBJECT_ID": "1999-025ATS", "EPOCH": "2025-12-27T03:53:06.146880", "MEAN_MOTION": 14.18362774, "ECCENTRICITY": 0.0072238, "INCLINATION": 98.9899, "RA_OF_ASC_NODE": 68.7569, "ARG_OF_PERICENTER": 274.5352, "MEAN_ANOMALY": 140.3111, "EPHEMERIS_TYPE": 0, "CLASSIFICATION_TYPE": "U", "NORAD_CAT_ID": 30756, "ELEMENT_SET_NO": 999, "REV_AT_EPOCH": 96609, "BSTAR": 0.0017045, "MEAN_MOTION_DOT": 3.561e-05, "MEAN_MOTION_DDOT": 0}, "tle": {"line1": "1 30756U 99025ATS 25361.16187670  .00003561  00000+0  17045-2 0  9992", "line2": "2 30756  98.9899  68.7569 0072238 274.5352 140.3111 14.18362774966090"}}, "geometry": {"type": "Point", "coordinates": [-116.04536551396372, -29.406474901024485]}}, {"type": "Feature", "properties": {"norad_id": 30758, "name": "FENGYUN 1C DEB", "group": "fengyun-1c-debris", "lat": -0.7836535134285609, "lon": -59.7457247724062, "alt_km": 858.988126560701, "timestamp": "2025-12-27T11:23:20.176161+00:00", "meta": {"OBJECT_NAME": "FENGYUN 1C DEB", "OBJECT_ID": "1999-025ATU", "EPOCH": "2025-12-27T02:54:17.352288", "MEAN_MOTION": 14.1716717, "ECCENTRICITY": 0.0038525, "INCLINATION": 99.0187, "RA_OF_ASC_NODE": 120.0203, "ARG_OF_PERICENTER": 321.0323, "MEAN_ANOMALY": 217.4232, "EPHEMERIS_TYPE": 0, "CLASSIFICATION_TYPE": "U", "NORAD_CAT_ID": 30758, "ELEMENT_SET_NO": 999, "REV_AT_EPOCH": 96694, "BSTAR": 0.0011434, "MEAN_MOTION_DOT": 2.276e-05, "MEAN_MOTION_DDOT": 0}, "tle": {"line1": "1 30758U 99025ATU 25361.12103417  .00002276  00000+0  11434-2 0  9995", "line2": "2 30758  99.0187 120.0203 0038525 321.0323 217.4232 14.17167170966944"}}, "geometry": {"type": "Point", "coordinates": [-59.7457247724062, -0.7836535134285609]}}]}